{"epoch":1784902576,"count":18312,"objects":[{"id":"43056","name":"GALILEO 20 (2C6)","type":"PAYLOAD","l1":"1 43056U 17079B   26204.08810596  .00000074  00000-0  00000-0 0  9994","l2":"2 43056  55.0662 220.5182 0004973 278.6022  81.3894  1.70474558 53613"},{"id":"43057","name":"GALILEO 21 (2C7)","type":"PAYLOAD","l1":"1 43057U 17079C   26204.30891575  .00000075  00000-0  00000-0 0  9997","l2":"2 43057  55.0645 220.5097 0004221 291.2538  68.7496  1.70474497 53607"},{"id":"43058","name":"GALILEO 22 (2C8)","type":"PAYLOAD","l1":"1 43058U 17079D   26203.35582479  .00000071  00000-0  00000-0 0  9998","l2":"2 43058  55.0649 220.5336 0005429 275.3453  84.6382  1.70474503 53618"},{"id":"43107","name":"BEIDOU 3M3","type":"PAYLOAD","l1":"1 43107U 18003A   26204.32690344 -.00000095  00000-0  00000-0 0  9997","l2":"2 43107  54.2931 301.0534 0004261 100.7198 259.3628  1.86228147 58025"},{"id":"43108","name":"BEIDOU 3M4","type":"PAYLOAD","l1":"1 43108U 18003B   26205.34501578 -.00000087  00000-0  00000-0 0  9992","l2":"2 43108  54.2850 300.9994 0003214 257.1085 102.8926  1.86231074 58052"},{"id":"43207","name":"BEIDOU 3M5","type":"PAYLOAD","l1":"1 43207U 18018A   26202.02956916 -.00000080  00000-0  00000-0 0  9993","l2":"2 43207  56.6812  62.0321 0007145  31.4150 328.6897  1.86231251 57375"},{"id":"43208","name":"BEIDOU 3M6","type":"PAYLOAD","l1":"1 43208U 18018B   26202.63302743 -.00000079  00000-0  00000-0 0  9992","l2":"2 43208  56.6811  62.0163 0007201 348.0427  12.0023  1.86231119 57385"},{"id":"43245","name":"BEIDOU 3M7","type":"PAYLOAD","l1":"1 43245U 18029A   26204.46195111 -.00000090  00000-0  00000-0 0  9990","l2":"2 43245  54.1582 298.6782 0001191 192.7785 167.2569  1.86228582 56579"},{"id":"43246","name":"BEIDOU 3M8","type":"PAYLOAD","l1":"1 43246U 18029B   26204.39612726 -.00000090  00000-0  00000-0 0  9999","l2":"2 43246  54.1564 298.7073 0003150  36.1527 323.9067  1.86229210 56557"},{"id":"43286","name":"IRNSS 1I","type":"PAYLOAD","l1":"1 43286U 18035A   26202.89458949  .00000062  00000-0  00000-0 0  9996","l2":"2 43286  28.8336  73.6540 0018405 179.0574  64.0489  1.00274701 30423"},{"id":"43508","name":"COSMOS 2527 (GLONASS)","type":"PAYLOAD","l1":"1 43508U 18053A   26204.21788319 -.00000046  00000-0  00000-0 0  9991","l2":"2 43508  65.5980  72.7056 0006388 226.7485 133.2666  2.13102044 63048"},{"id":"43539","name":"BEIDOU IGSO-7","type":"PAYLOAD","l1":"1 43539U 18057A   26197.82826650 -.00000084  00000-0  00000-0 0  9990","l2":"2 43539  55.1987 162.7987 0104915 237.9691 299.1450  1.00242392 29428"},{"id":"43564","name":"GALILEO 25 (2C1)","type":"PAYLOAD","l1":"1 43564U 18060A   26203.84656221 -.00000106  00000-0  00000+0 0  9991","l2":"2 43564  57.1563 340.8185 0002811 280.1665  79.7963  1.70476368 49770"},{"id":"43565","name":"GALILEO 26 (2C2)","type":"PAYLOAD","l1":"1 43565U 18060B   26205.23943563 -.00000104  00000-0  00000-0 0  9994","l2":"2 43565  57.1592 340.7847 0003113 233.8422 126.1231  1.70476168 49840"},{"id":"43566","name":"GALILEO 23 (2C9)","type":"PAYLOAD","l1":"1 43566U 18060C   26204.28711375 -.00000106  00000-0  00000+0 0  9994","l2":"2 43566  57.1589 340.8118 0001921 290.7871  69.1867  1.70476344 49807"},{"id":"43567","name":"GALILEO 24 (2C0)","type":"PAYLOAD","l1":"1 43567U 18060D   26203.92155013 -.00000106  00000-0  00000+0 0  9996","l2":"2 43567  57.1584 340.8214 0002105 282.3928  77.5781  1.70476338 49783"},{"id":"43581","name":"BEIDOU 3M9","type":"PAYLOAD","l1":"1 43581U 18062A   26204.62001793  .00000068  00000-0  00000-0 0  9994","l2":"2 43581  54.0866 181.0654 0005556 295.4007  64.5234  1.86228801 54318"},{"id":"43582","name":"BEIDOU 3M10","type":"PAYLOAD","l1":"1 43582U 18062B   26205.02060615  .00000064  00000-0  00000-0 0  9994","l2":"2 43582  54.0863 181.0408 0005429  11.7592 348.2343  1.86228097 54321"},{"id":"43602","name":"BEIDOU 3M11","type":"PAYLOAD","l1":"1 43602U 18067A   26203.88514647  .00000072  00000-0  00000+0 0  9991","l2":"2 43602  54.1814 179.8297 0008088  29.8978 330.1292  1.86227663 53784"},{"id":"43603","name":"BEIDOU 3M12","type":"PAYLOAD","l1":"1 43603U 18067B   26204.02030808  .00000071  00000-0  00000-0 0  9991","l2":"2 43603  54.1790 179.7886 0004748  13.8554 346.1384  1.86227171 53810"},{"id":"43622","name":"BEIDOU 3M13","type":"PAYLOAD","l1":"1 43622U 18072A   26203.97493888 -.00000074  00000-0  00000-0 0  9996","l2":"2 43622  56.6564  61.4788 0005899 334.7439  25.2913  1.86231140 53320"},{"id":"43623","name":"BEIDOU 3M14","type":"PAYLOAD","l1":"1 43623U 18072B   26203.84036028 -.00000075  00000-0  00000-0 0  9993","l2":"2 43623  56.6582  61.4777 0005362  12.6892 347.3880  1.86231202 53318"},{"id":"43647","name":"BEIDOU 3M15","type":"PAYLOAD","l1":"1 43647U 18078A   26201.84740124 -.00000098  00000-0  00000-0 0  9997","l2":"2 43647  54.0571 298.8050 0006517  39.3061 320.7783  1.86232384 52780"},{"id":"43648","name":"BEIDOU 3M16","type":"PAYLOAD","l1":"1 43648U 18078B   26204.66139875 -.00000088  00000-0  00000-0 0  9995","l2":"2 43648  54.0502 298.7063 0003305  56.5798 303.4904  1.86232568 52853"},{"id":"43683","name":"BEIDOU 3G1","type":"PAYLOAD","l1":"1 43683U 18085A   26205.21432979 -.00000106  00000-0  00000-0 0  9996","l2":"2 43683   2.9598  96.3716 0008394 357.7830  84.9439  1.00273169 28431"},{"id":"43687","name":"COSMOS 2529 (GLONASS)","type":"PAYLOAD","l1":"1 43687U 18086A   26201.49849141  .00000085  00000-0  00000-0 0  9995","l2":"2 43687  64.2975 191.4696 0011977 256.3144 103.5547  2.13101999 59991"},{"id":"43706","name":"BEIDOU 3M17","type":"PAYLOAD","l1":"1 43706U 18093A   26204.28387589  .00000071  00000-0  00000+0 0  9992","l2":"2 43706  54.1702 181.0718 0009975 295.3478  62.8213  1.86228519 52208"},{"id":"43707","name":"BEIDOU 3M18","type":"PAYLOAD","l1":"1 43707U 18093B   26204.15020127  .00000072  00000-0  00000-0 0  9993","l2":"2 43707  54.1710 181.0687 0008091 324.9703  34.9587  1.86226747 52206"},{"id":"43873","name":"NAVSTAR 77 (USA 289)","type":"PAYLOAD","l1":"1 43873U 18109A   26205.14968741 -.00000063  00000-0  00000-0 0  9999","l2":"2 43873  55.7040  90.7281 0038900 197.0028 335.4025  2.00563468 55817"},{"id":"44204","name":"BEIDOU 3 IGSO-1","type":"PAYLOAD","l1":"1 44204U 19023A   26203.94325155 -.00000206  00000-0  00000-0 0  9995","l2":"2 44204  58.7465  37.2807 0026212 223.4294 138.8657  1.00281730  7576"},{"id":"44231","name":"BEIDOU 2 G8","type":"PAYLOAD","l1":"1 44231U 19027A   26205.28247802 -.00000244  00000-0  00000-0 0  9992","l2":"2 44231   1.7498  74.5017 0009506 284.4550 189.2369  1.00269900 26459"}]}